STARLINK-4451           
1 53492U 22099AD  22251.58334491 -.01220521  00000+0 -27038-1 0  9999
2 53492  97.6553  11.0753 0001797  71.4332  44.3781 15.46544187  1307
STARLINK-4361           
1 53493U 22099AE  22251.58334491 -.01220798  00000+0 -26688-1 0  9996
2 53493  97.6553  11.0722 0001737  85.5773  36.7940 15.46928238  1308
STARLINK-4340           
1 53494U 22099AF  22251.58334491 -.01220577  00000+0 -26952-1 0  9996
2 53494  97.6553  11.0745 0001754  78.7407  39.2986 15.46638125  1302
STARLINK-4429           
1 53495U 22099AG  22251.58334491 -.01221073  00000+0 -26582-1 0  9998
2 53495  97.6553  11.0716 0001783  76.0752  48.6544 15.47049723  1302
STARLINK-4465           
1 53496U 22099AH  22251.58334491 -.01220609  00000+0 -26790-1 0  9994
2 53496  97.6553  11.0728 0001728  88.3296  32.4865 15.46813328  1300
STARLINK-4453           
1 53497U 22099AJ  22251.58334491 -.01221296  00000+0 -26297-1 0  9990
2 53497  97.6553  11.0703 0001864  66.9783  61.2958 15.47365157  1304
STARLINK-4439           
1 53498U 22099AK  22251.58334491 -.01220972  00000+0 -26686-1 0  9993
2 53498  97.6553  11.0723 0001815  71.1497  52.0401 15.46934262  1302
STARLINK-4454           
1 53499U 22099AL  22251.58334491 -.01221368  00000+0 -26290-1 0  9995
2 53499  97.6553  11.0694 0001802  74.4794  54.6336 15.47375194  1301
STARLINK-4455           
1 53500U 22099AM  22251.58334491 -.01221100  00000+0 -26558-1 0  9999
2 53500  97.6553  11.0705 0001769  78.9528  46.7297 15.47076573  1300
STARLINK-4434           
1 53501U 22099AN  22251.58334491 -.01221720  00000+0 -25946-1 0  9998
2 53501  97.6553  11.0685 0001825  72.4798  61.2147 15.47762292  1305
STARLINK-4435           
1 53502U 22099AP  22251.58334491 -.01221476  00000+0 -26209-1 0  9990
2 53502  97.6553  11.0698 0001791  76.6205  53.8208 15.47466768  1305
STARLINK-4461           
1 53503U 22099AQ  22251.58334491 -.01221785  00000+0 -25820-1 0  9992
2 53503  97.6553  11.0679 0001835  71.5219  63.7186 15.47903400  1307
STARLINK-4448           
1 53504U 22099AR  22251.58334491 -.01221581  00000+0 -26048-1 0  9990
2 53504  97.6553  11.0692 0001813  73.6771  58.5873 15.47646258  1305
STARLINK-4446           
1 53505U 22099AS  22251.58334491 -.01222109  00000+0 -25582-1 0  9990
2 53505  97.6553  11.0669 0001768  86.1931  52.7937 15.48177303  1304
STARLINK-4437           
1 53506U 22099AT  22251.58334491 -.01221882  00000+0 -25805-1 0  9996
2 53506  97.6553  11.0669 0001806  75.7842  60.3378 15.47922784  1307
STARLINK-4444           
1 53507U 22099AU  22251.58334491 -.01222282  00000+0 -25336-1 0  9991
2 53507  97.6553  11.0666 0001802  77.9873  63.1153 15.48457430  1303
STARLINK-4443           
1 53508U 22099AV  22251.58334491 -.01222074  00000+0 -25582-1 0  9994
2 53508  97.6553  11.0678 0001807  76.2864  61.9163 15.48176078  1307
STARLINK-4402           
1 53509U 22099AW  22251.58334491 -.01222457  00000+0 -25155-1 0  9996
2 53509  97.6552  11.0653 0001813  76.7001  66.8858 15.48666234  1308
STARLINK-4441           
1 53510U 22099AX  22251.58334491 -.01222315  00000+0 -25315-1 0  9999
2 53510  97.6553  11.0655 0001814  76.1677  65.8248 15.48481838  1304
FALCON 9 DEB            
1 53511U 22099AY  22251.26874238  .00254815  26995-4  71163-3 0  9990
2 53511  97.6789  11.7324 0008476 195.8931 164.2078 15.93607807  4190
FALCON 9 DEB            
1 53512U 22099AZ  22251.32264343  .00249144  26123-4  66920-3 0  9995
2 53512  97.6746  11.8079 0006246 207.3692 152.7254 15.94378970  4205
FALCON 9 DEB            
1 53513U 22099BA  22251.42557237  .00298256  37659-4  71400-3 0  9997
2 53513  97.6679  11.9696 0007532 173.2913 186.8464 15.96503272  4223
FALCON 9 DEB            
1 53514U 22099BB  22251.42155526  .00282320  33931-4  67345-3 0  9990
2 53514  97.6672  11.9726 0006910 163.7446 196.4053 15.96579127  4228
YAOGAN-35 04A           
1 53522U 22100A   22251.64394049  .00009719  00000+0  40452-3 0  9996
2 53522  35.0013  82.5456 0006855  76.3384 283.8077 15.22977087  3046
CZ-2D R/B               
1 53523U 22100B   22251.63625058  .00016406  00000+0  66557-3 0  9998
2 53523  35.0013  82.4825 0006982  79.9137 280.2336 15.23753559  3048
YAOGAN-35 04B           
1 53524U 22100C   22251.64053821  .00010054  00000+0  41803-3 0  9993
2 53524  35.0003  82.5170 0004865  75.7331 284.3886 15.23013810  2997
CZ-2D DEB               
1 53525U 22100D   22251.63185702  .00018338  00000+0  73548-3 0  9991
2 53525  35.0019  82.4459 0007226  91.3060 268.8453 15.24118430  2993
YAOGAN-35 04C           
1 53526U 22100E   22251.64316694  .00007879  00000+0  32960-3 0  9990
2 53526  35.0009  82.5399 0004958  86.4956 273.6313 15.22852963  2998
STARLINK-4511           
1 53527U 22101A   22251.58334491 -.01120693  00000+0 -13227-1 0  9996
2 53527  53.2176  56.8968 0001438  49.4491 198.0051 15.63283376  1309
STARLINK-4503           
1 53528U 22101B   22251.58334491 -.01120828  00000+0 -13232-1 0  9993
2 53528  53.2175  56.8925 0001561  42.5154 204.2379 15.63276119  1309
STARLINK-4478           
1 53529U 22101C   22251.58334491 -.01120878  00000+0 -13225-1 0  9991
2 53529  53.2176  56.9022 0001552  42.8513 205.3036 15.63290798  1303
STARLINK-4482           
1 53530U 22101D   22251.58334491 -.01120927  00000+0 -13218-1 0  9990
2 53530  53.2176  56.9116 0001555  42.5005 207.0558 15.63305375  1301
STARLINK-4487           
1 53531U 22101E   22251.58334491 -.01120860  00000+0 -13221-1 0  9991
2 53531  53.2176  56.9075 0001538  43.4513 205.4043 15.63298120  1301
STARLINK-4483           
1 53532U 22101F   22251.58334491 -.01120801  00000+0 -13212-1 0  9997
2 53532  53.2176  56.9645 0001475  46.7652 203.4894 15.63314413  1301
STARLINK-4493           
1 53533U 22101G   22251.58334491 -.01120844  00000+0 -13209-1 0  9991
2 53533  53.2176  56.9674 0001419  50.2758 200.6793 15.63321683  1303
STARLINK-4488           
1 53534U 22101H   22251.58334491 -.01121576  00000+0 -13201-1 0  9997
2 53534  53.2176  56.9833 0001875  30.2471 223.5092 15.63351114  1305
STARLINK-4138           
1 53535U 22101J   22251.58334491 -.01120998  00000+0 -13203-1 0  9997
2 53535  53.2176  56.9729 0001506  44.7451 207.6109 15.63336227  1309
STARLINK-4053           
1 53536U 22101K   22251.58334491 -.00055822  00000+0 -39504-3 0  9994
2 53536  53.2161  56.7901 0001372  42.7456 285.1459 15.73253436  1308
STARLINK-4120           
1 53537U 22101L   22251.58334491 -.01121006  00000+0 -13207-1 0  9994
2 53537  53.2176  56.9680 0001493  45.5395 206.1162 15.63328882  1309
STARLINK-4118           
1 53538U 22101M   22251.58334491 -.00014101  00000+0 -96154-4 0  9996
2 53538  53.2158  56.7877 0001499  47.8975 280.6350 15.73214321  1300
STARLINK-4123           
1 53539U 22101N   22251.58334491 -.01120962  00000+0 -13199-1 0  9996
2 53539  53.2176  56.9782 0001446  48.2029 204.8534 15.63343515  1304
STARLINK-4486           
1 53540U 22101P   22251.58334491  .00006628  00000+0  51544-4 0  9996
2 53540  53.2163  56.7875 0001438  42.3591 287.2634 15.73227184  1303
STARLINK-4485           
1 53541U 22101Q   22251.58334491 -.01121204  00000+0 -13194-1 0  9994
2 53541  53.2176  56.9885 0001542  42.5824 211.8741 15.63358247  1304
STARLINK-4489           
1 53542U 22101R   22251.58334491  .00016214  00000+0  11952-3 0  9998
2 53542  53.2161  56.7842 0001652  41.3946 289.3701 15.73239242  1304
STARLINK-4297           
1 53543U 22101S   22251.58334491  .00024699  00000+0  17974-3 0  9995
2 53543  53.2161  56.7876 0001450  43.4273 285.5733 15.73218426  1308
STARLINK-4303           
1 53544U 22101T   22251.58334491  .00020022  00000+0  14662-3 0  9993
2 53544  53.2161  56.7822 0001469  41.8961 290.0868 15.73218733  1307
STARLINK-4475           
1 53545U 22101U   22251.58334491  .00019261  00000+0  14138-3 0  9995
2 53545  53.2162  56.7857 0001224  51.6170 278.5573 15.73192879  1303
STARLINK-4477           
1 53546U 22101V   22251.58334491  .00015709  00000+0  11590-3 0  9998
2 53546  53.2165  55.6979 0001853  37.8744 100.0131 15.73247308  1308
STARLINK-4474           
1 53547U 22101W   22251.58334491  .00018487  00000+0  13577-3 0  9992
2 53547  53.2163  56.7839 0001421  47.6322 283.7667 15.73212898  1305
STARLINK-4513           
1 53548U 22101X   22251.58334491 -.00002358  00000+0 -12382-4 0  9999
2 53548  53.2177  56.7713 0001555  48.6001 285.7829 15.73205219  1306
STARLINK-4516           
1 53549U 22101Y   22251.58334491 -.00051105  00000+0 -36080-3 0  9994
2 53549  53.2154  56.7784 0001614  52.0956 280.5043 15.73270821  1306
STARLINK-4518           
1 53550U 22101Z   22251.58334491 -.00067712  00000+0 -48116-3 0  9990
2 53550  53.2157  56.7753 0001678  49.3333 285.6706 15.73235423  1306
STARLINK-4514           
1 53551U 22101AA  22251.58334491 -.00005306  00000+0 -33332-4 0  9997
2 53551  53.2162  56.7802 0001701  47.0285 286.1481 15.73248948  1308
STARLINK-4495           
1 53552U 22101AB  22251.58334491 -.00058625  00000+0 -41557-3 0  9997
2 53552  53.2161  56.7735 0001516  43.6680 293.1288 15.73234732  1307
STARLINK-4501           
1 53553U 22101AC  22251.58334491  .00019903  00000+0  14572-3 0  9999
2 53553  53.2159  56.7747 0001439  40.8474 294.7199 15.73227244  1300
STARLINK-4506           
1 53554U 22101AD  22251.58334491  .00020752  00000+0  15177-3 0  9996
2 53554  53.2156  56.7696 0001534  57.6522 280.2933 15.73221418  1300
STARLINK-4504           
1 53555U 22101AE  22251.58334491  .00018088  00000+0  13291-3 0  9991
2 53555  53.2155  56.7718 0001404  42.8380 293.3161 15.73218837  1308
STARLINK-4505           
1 53556U 22101AF  22251.58334491 -.00012280  00000+0 -83051-4 0  9994
2 53556  53.2157  56.7676 0001530  42.5392 296.6541 15.73241112  1304
STARLINK-4502           
1 53557U 22101AG  22251.58334491 -.00013265  00000+0 -90061-4 0  9998
2 53557  53.2157  56.7707 0001593  55.2818 282.0860 15.73244593  1302
